[{"OBJECT_NAME":"KAZSTSAT","OBJECT_ID":"2018-099AB","EPOCH":"2026-03-09T14:51:18.118944","MEAN_MOTION":14.99620503,"ECCENTRICITY":0.0006528,"INCLINATION":97.4396,"RA_OF_ASC_NODE":105.0128,"ARG_OF_PERICENTER":11.1145,"MEAN_ANOMALY":349.0222,"EPHEMERIS_TYPE":0,"CLASSIFICATION_TYPE":"U","NORAD_CAT_ID":43783,"ELEMENT_SET_NO":999,"REV_AT_EPOCH":39638,"BSTAR":0.00011446,"MEAN_MOTION_DOT":1.354e-5,"MEAN_MOTION_DDOT":0},{"OBJECT_NAME":"STARLINK-35958","OBJECT_ID":"2025-280B","EPOCH":"2026-03-09T22:33:13.781376","MEAN_MOTION":14.98325387,"ECCENTRICITY":0.00026185,"INCLINATION":70.0023,"RA_OF_ASC_NODE":333.813,"ARG_OF_PERICENTER":271.2816,"MEAN_ANOMALY":88.8043,"EPHEMERIS_TYPE":0,"CLASSIFICATION_TYPE":"U","NORAD_CAT_ID":66822,"ELEMENT_SET_NO":999,"REV_AT_EPOCH":1611,"BSTAR":0.00027043095,"MEAN_MOTION_DOT":3.135e-5,"MEAN_MOTION_DDOT":0}]
